#dP2024  9 19  0  0  0.00000000     289 d+D   IGS20 FIT AIUB
## 2332 345600.00000000   300.00000000 60572 0.0000000000000
+   81   G01G02G03G04G05G06G07G08G09G10G11G12G13G14G15G16G17
+        G18G19G20G21G22G23G24G25G26G27G28G29G30G31G32R01R02
+        R03R04R05R07R08R09R11R12R14R15R16R17R18R19R20R21R22
+        R24R25R26E02E03E04E05E06E07E08E09E10E11E12E13E14E15
+        E18E19E21E24E25E26E27E29E30E31E33E34E36  0  0  0  0
++         4  6  4  4  4  5  6  4  4  4  6  4  4  4  4  4 10
++         6  5  4  6  4  4  5  4  4  4  6  4  6  6  4  4  4
++         4  4  4  4  4  4  4  4  4  5  4  4  4  5  5  4  4
++         5  4  4  4  4  4  4  4  4  4  4  6  6  5  6  4  6
++         4  4  4  4  4  6  4  4  4  4  6  6  6  0  0  0  0
%c M  cc GPS ccc cccc cccc cccc cccc ccccc ccccc ccccc ccccc
%c cc cc ccc ccc cccc cccc cccc cccc ccccc ccccc ccccc ccccc
%f  1.2500000  1.025000000  0.00000000000  0.000000000000000
%f  0.0000000  0.000000000  0.00000000000  0.000000000000000
%i    0    0    0    0      0      0      0      0         0
%i    0    0    0    0      0      0      0      0         0
/* Center for Orbit Determination in Europe (CODE)                              
/* Final GNSS orbits and clocks for year-day 2024-2630                          
/* Middle day of a 3-day long-arc GRE solution                                  
/* Product reference - DOI 10.48350/197025                                      
/* PCV:IGS20      OL/AL:FES2014b NONE     YN ORB:CoN CLK:CoN                    
*  2024  9 19 14 55  0.00000000
PG01 -25276.199772  -8297.350598  -3075.377216    193.324428
PG02 -13797.205200  22078.026599  -3787.632895   -354.753946
PG03  -5952.870024  13676.403652 -22135.919642    543.144045
PG04  -2288.843858  23418.353671 -12164.455909    446.603201
PG05  21327.293617  -6262.602829  14406.083743   -187.109675
PG06  15944.642252   3191.426317 -20958.338053     20.001962
PG07    829.424236  19002.038247  18877.786844    -36.042893
PG08  -9693.093431  14671.771141  19661.477757    357.791310
PG09   6752.969430  25525.995402  -2639.158722    363.199012
PG10 -23198.572134 -10715.353037   8068.546820   -130.429696
PG11  21582.676469  -9932.047153 -11774.392115   -736.272179
PG12  10558.240656 -12354.737990 -21279.427978   -539.204917
PG13  13926.631492  -5998.720344  21556.167576    677.313717
PG14  20490.614929  13175.838756  10896.145570    499.116313
PG15   7504.092670 -16337.540347  18980.054667    206.105923
PG16 -24180.377385    511.588567  11132.732741   -176.817359
PG17  13482.136997  18851.330691 -12390.092665    622.073749
PG18   -563.231614 -18275.200135  19204.723165   -654.212654
PG19  15437.391727  11560.751153 -18595.858594    540.089797
PG20  26084.435208  -1907.869430   4199.595671    370.480495
PG21 -16733.569765  19812.576107   1865.556110    101.445790
PG22  24054.628823  10375.568486   3651.142220    -63.382745
PG23 -12935.144395 -14798.409193  17997.006571    323.634970
PG24  14028.945511 -22158.309123  -2846.261055   -486.536153
PG25  -3519.222777 -16170.334316 -21163.057086    499.628251
PG26 -26376.610232  -4458.597423  -1130.413810     75.342380
PG27 -14900.692284   2875.503319  21522.309126    -33.885305
PG28 -14973.784512  -5362.614095 -21285.280422   -416.862999
PG29  -2576.395712 -25921.735071  -4875.282865   -576.829351
PG30  10489.277162  11913.944868  21432.660519   -318.335874
PG31 -21044.528009   6019.532786 -15540.429861   -224.504812
PG32 -15233.202398 -17317.333840 -13135.175626   -595.624023
PR01  13204.162579   -351.465108  21816.957018     98.315619
PR02   1179.922650 -14468.861566  21031.859367    -24.727304
PR03 -11751.713053 -21130.400755   8270.172043    107.858994
PR04 -17627.377639 -16299.947664  -8624.424718    255.440090
PR05 -14308.689043  -2760.625904 -20938.953200    137.900144
PR07  12060.658408  21092.731217  -7639.401710     91.219673
PR08  17837.861518  15880.387529   8957.956423     -6.401462
PR09 -13805.241718  11590.355208  18030.734741    210.025042
PR11  19346.500416   4627.264828  15992.330076     11.444300
PR12  24889.964010  -4972.832460  -2448.549948     45.044602
PR14  -4321.556153 -10526.732288 -22812.407090     26.951770
PR15 -20505.879161  -4001.760786 -14605.971812     75.733241
PR16 -24887.842401   4989.917958   2330.589245     29.267861
PR17   1285.757252 -20903.882443  14535.660324    123.405132
PR18  -7885.986433  -8015.105113  22918.237292    162.828057
PR19 -13308.842372   6913.384751  20640.998329   -291.924260
PR20 -11916.067087  22280.065844   3404.545700   -119.311105
PR21  -2007.212443  21292.337508 -13928.307280   -135.783350
PR22   8679.026461   7137.016054 -22870.775138     43.056287
PR24  10705.162160 -22965.175552  -2797.151547    -72.651291
PR25  -1715.542077  20790.869057 -14691.616643    -99.055120
PR26  17781.362688  16747.140449   7396.147413     33.299290
PE02  10367.026618  18175.376420  20932.849148    160.522035
PE03   7510.987821  28633.265646    536.707647   -141.438260
PE04 -16931.635416 -16415.570352 -17887.052820    -36.882841
PE05  -6090.229734  23684.756379 -16681.996900   4785.592970
PE06 -18020.004691  -5970.874259 -22730.852510    -27.434836
PE07  16325.280688  -4480.895522  24278.541568   -142.909046
PE08  16621.688978  17247.908218  17390.119157   -338.109982
PE09 -16209.086603   4377.745585 -24383.048547   -595.575283
PE10 -21930.408071   3685.093430  19539.957318   -657.712431
PE11 -24102.237787  12840.303248  11408.785938   1605.682950
PE12 -16907.026136  -5066.193431  23759.402530  -1216.836690
PE13  24059.960246 -12420.475404 -11950.134968    -24.936296
PE14  15508.477862  26783.951287  -9859.300157    236.823997
PE15  16394.282896   5609.570159 -23991.072341   -128.085928
PE18 -12637.179272 -17262.527203   9725.659829    565.267169
PE19  -6110.231464 -28933.872106   1299.407886    646.908639
PE21  11075.981401 -13856.801212 -23691.292644   -617.726939
PE24 -26841.419199   1093.113138  12441.556407   -996.308397
PE25 -11542.122085  13654.447637  23600.080659      9.243553
PE26  17135.361017 -22999.637078   7300.576881   -264.680380
PE27  26756.683990  -1254.606749 -12582.956670   -456.539240
PE29   5968.807183 -23982.539942  16288.985685    -31.386653
PE30  26436.206171  11991.521060   5758.948850   -733.205742
PE31 -26472.708428 -11912.713258  -5779.086769    -36.410314
PE33   1190.194336 -20265.236262  21540.898127     15.412423
PE34   -744.947045  20070.935411 -21752.468538   -135.245222
PE36 -17546.543948  22845.362321  -6813.053391   -285.528359
EOF
